XRISM                   
1 57800U 23137A   24160.91668184  .00008222  00000+0  62006-3 0  9992
2 57800  31.0042  65.2575 0009278 127.2056 232.9428 15.01127097 41368
